NORAD_CAT_ID,OBJECT_NAME,OBJECT_TYPE,EPOCH,MEAN_MOTION,ECCENTRICITY,INCLINATION,RA_OF_ASC_NODE,ARG_OF_PERICENTER,MEAN_ANOMALY,BSTAR,MEAN_MOTION_DOT,MEAN_MOTION_DDOT,TLE_LINE0,TLE_LINE1,TLE_LINE2,SEMIMAJOR_AXIS,PERIOD,APOGEE,PERIGEE,DECAYED
55773.0,STARLINK-5833,PAYLOAD,2024-03-05 23:57:32,14.98325892,0.0002911,69.998,274.3357,274.732,85.3506,-8.2599e-05,-1.078e-05,0.0,0 STARLINK-5833,1 55773U 23028AJ  24065.99829594 -.00001078  00000-0 -82599-4 0  9999,2 55773  69.9980 274.3357 0002911 274.7320  85.3506 14.98325892 56637,6950.206,96.107,574.094,570.047,0.0
55773.0,STARLINK-5833,PAYLOAD,2024-03-06 14:22:44,14.9832556,0.0002834,69.998,272.8207,277.2887,82.795,4.178e-05,4.05e-06,0.0,0 STARLINK-5833,1 55773U 23028AJ  24066.59913151  .00000405  00000-0  41780-4 0  9997,2 55773  69.9980 272.8207 0002834 277.2887  82.7950 14.98325560 56720,6950.207,96.107,574.041,570.102,0.0
55773.0,STARLINK-5833,PAYLOAD,2024-03-06 23:59:33,14.98326351,0.0002833,69.998,271.8107,277.3823,82.7014,4.5638e-05,4.52e-06,0.0,0 STARLINK-5833,1 55773U 23028AJ  24066.99969202  .00000452  00000-0  45638-4 0  9997,2 55773  69.9980 271.8107 0002833 277.3823  82.7014 14.98326351 56784,6950.204,96.107,574.038,570.1,0.0
55773.0,STARLINK-5833,PAYLOAD,2024-03-07 14:24:45,14.98327617,0.0002892,69.9978,270.2955,276.3056,83.7774,9.5698e-05,1.049e-05,0.0,0 STARLINK-5833,1 55773U 23028AJ  24067.60053062  .00001049  00000-0  95698-4 0  9998,2 55773  69.9978 270.2955 0002892 276.3056  83.7774 14.98327617 56877,6950.2,96.107,574.075,570.055,0.0
55773.0,STARLINK-5833,PAYLOAD,2024-03-08 06:26:06,14.98330009,0.0002896,69.9977,268.6123,274.9768,85.1061,6.188e-05,6.45e-06,0.0,0 STARLINK-5833,1 55773U 23028AJ  24068.26813004  .00000645  00000-0  61880-4 0  9998,2 55773  69.9977 268.6123 0002896 274.9768  85.1061 14.98330009 56977,6950.193,96.107,574.071,570.045,0.0
55773.0,STARLINK-5833,PAYLOAD,2024-03-08 12:50:38,14.98330472,0.0002842,69.9978,267.9388,273.9344,86.149,5.2595e-06,-3e-07,0.0,0 STARLINK-5833,1 55773U 23028AJ  24068.53517125 -.00000030  00000-0  52595-5 0  9996,2 55773  69.9978 267.9388 0002842 273.9344  86.1490 14.98330472 57010,6950.191,96.107,574.032,570.081,0.0
55773.0,STARLINK-5833,PAYLOAD,2024-03-08 19:15:10,14.98330834,0.0002845,69.9978,267.2655,273.9081,86.1753,8.2801e-06,6e-08,0.0,0 STARLINK-5833,1 55773U 23028AJ  24068.80221060  .00000006  00000-0  82801-5 0  9991,2 55773  69.9978 267.2655 0002845 273.9081  86.1753 14.98330834 57059,6950.19,96.107,574.033,570.078,0.0
55773.0,STARLINK-5833,PAYLOAD,2024-03-09 06:27:28,14.98780411,0.0005835,69.9978,266.0856,225.0955,134.9731,0.004725,0.00057428,0.0,0 STARLINK-5833,1 55773U 23028AJ  24069.26907417  .00057428  00000-0  47250-2 0  9995,2 55773  69.9978 266.0856 0005835 225.0955 134.9731 14.98780411 57125,6948.8,96.078,574.72,566.611,0.0
55773.0,STARLINK-5833,PAYLOAD,2024-03-09 22:00:00,14.98320574,0.0002983,69.9992,264.4549,275.6951,334.1186,0.0010894,0.00012926,0.0,0 STARLINK-5833,1 55773U 23028AJ  24069.91667824  .00012926  00000-0  10894-2 0  9990,2 55773  69.9992 264.4549 0002983 275.6951 334.1186 14.98320574 57218,6950.222,96.108,574.16,570.014,0.0
55773.0,STARLINK-5833,PAYLOAD,2024-03-10 09:42:24,14.983292,0.0002764,69.9997,263.2249,273.7682,86.316,-5.3699e-05,-7.34e-06,0.0,0 STARLINK-5833,1 55773U 23028AJ  24070.40444544 -.00000734  00000-0 -53699-4 0  9996,2 55773  69.9997 263.2249 0002764 273.7682  86.3160 14.98329200 57295,6950.195,96.107,573.981,570.139,0.0
55773.0,STARLINK-5833,PAYLOAD,2024-03-10 20:55:20,14.983266,0.0002756,69.9996,262.0466,271.6689,88.4154,-5.1451e-05,-7.07e-06,0.0,0 STARLINK-5833,1 55773U 23028AJ  24070.87176971 -.00000707  00000-0 -51451-4 0  9997,2 55773  69.9996 262.0466 0002756 271.6689  88.4154 14.98326600 57362,6950.203,96.107,573.984,570.153,0.0
55773.0,STARLINK-5833,PAYLOAD,2024-03-10 22:31:28,14.98326349,0.0002827,69.9994,261.8783,273.7294,86.3542,-5.622e-05,-7.64e-06,0.0,0 STARLINK-5833,1 55773U 23028AJ  24070.93852978 -.00000764  00000-0 -56220-4 0  9994,2 55773  69.9994 261.8783 0002827 273.7294  86.3542 14.98326349 57372,6950.204,96.107,574.034,570.104,0.0
55773.0,STARLINK-5833,PAYLOAD,2024-03-11 06:32:05,14.9840772,0.0006546,69.9986,261.0365,270.4099,89.6309,-0.0010685,-0.0001285,0.0,0 STARLINK-5833,1 55773U 23028AJ  24071.27228443 -.00012850  00000-0 -10685-2 0  9998,2 55773  69.9986 261.0365 0006546 270.4099  89.6309 14.98407720 57426,6949.953,96.102,576.367,567.268,0.0
55773.0,STARLINK-5833,PAYLOAD,2024-03-11 20:57:20,14.98327358,0.0002826,69.9992,259.5218,272.2605,87.823,-6.384e-05,-8.55e-06,0.0,0 STARLINK-5833,1 55773U 23028AJ  24071.87315898 -.00000855  00000-0 -63840-4 0  9990,2 55773  69.9992 259.5218 0002826 272.2605  87.8230 14.98327358 57513,6950.201,96.107,574.03,570.102,0.0
55773.0,STARLINK-5833,PAYLOAD,2024-03-12 19:23:13,14.98327253,0.000295,69.9987,257.1648,273.271,86.8112,-3.7872e-05,-5.45e-06,0.0,0 STARLINK-5833,1 55773U 23028AJ  24072.80779785 -.00000545  00000-0 -37872-4 0  9995,2 55773  69.9987 257.1648 0002950 273.2710  86.8112 14.98327253 57651,6950.201,96.107,574.117,570.016,0.0
55773.0,STARLINK-5833,PAYLOAD,2024-03-13 11:24:34,14.98337321,0.0003512,69.9989,255.482,270.1009,89.9748,-0.00029911,-3.661e-05,0.0,0 STARLINK-5833,1 55773U 23028AJ  24073.47539707 -.00003661  00000-0 -29911-3 0  9993,2 55773  69.9989 255.4820 0003512 270.1009  89.9748 14.98337321 57755,6950.17,96.107,574.476,569.594,0.0
55773.0,STARLINK-5833,PAYLOAD,2024-03-13 22:37:30,14.98329215,0.0003081,69.9948,254.3022,270.9775,89.1031,-6.5744e-05,-8.77e-06,0.0,0 STARLINK-5833,1 55773U 23028AJ  24073.94271319 -.00000877  00000-0 -65744-4 0  9998,2 55773  69.9948 254.3022 0003081 270.9775  89.1031 14.98329215 57829,6950.195,96.107,574.202,569.919,0.0
55773.0,STARLINK-5833,PAYLOAD,2024-03-14 05:02:02,14.98327614,0.0003154,69.998,253.6302,271.5278,88.5519,6.1485e-05,6.41e-06,0.0,0 STARLINK-5833,1 55773U 23028AJ  24074.20975102  .00000641  00000-0  61485-4 0  9994,2 55773  69.9980 253.6302 0003154 271.5278  88.5519 14.98327614 57863,6950.2,96.107,574.257,569.873,0.0
55773.0,STARLINK-5833,PAYLOAD,2024-03-14 11:26:35,14.98331545,0.0002694,69.9992,252.9572,272.1367,87.9484,-7.661e-05,-1.007e-05,0.0,0 STARLINK-5833,1 55773U 23028AJ  24074.47679491 -.00001007  00000-0 -76610-4 0  9990,2 55773  69.9992 252.9572 0002694 272.1367  87.9484 14.98331545 57908,6950.188,96.107,573.925,570.181,0.0
55773.0,STARLINK-5833,PAYLOAD,2024-03-14 21:03:23,14.98329692,0.0002792,70.0,251.9482,268.5733,91.5106,-0.00014538,-1.827e-05,0.0,0 STARLINK-5833,1 55773U 23028AJ  24074.87735782 -.00001827  00000-0 -14538-3 0  9990,2 55773  70.0000 251.9482 0002792 268.5733  91.5106 14.98329692 57963,6950.194,96.107,573.999,570.118,0.0
55773.0,STARLINK-5833,PAYLOAD,2024-03-14 22:39:32,14.98322084,0.0002753,70.0006,251.7789,271.5203,88.5641,-8.7654e-06,-1.98e-06,0.0,0 STARLINK-5833,1 55773U 23028AJ  24074.94412039 -.00000198  00000-0 -87654-5 0  9996,2 55773  70.0006 251.7789 0002753 271.5203  88.5641 14.98322084 57979,6950.217,96.108,573.996,570.169,0.0
55773.0,STARLINK-5833,PAYLOAD,2024-03-15 21:05:25,14.98324063,0.000274,70.0004,249.4229,269.4484,90.6361,-3.5532e-05,-5.17e-06,0.0,0 STARLINK-5833,1 55773U 23028AJ  24075.87876397 -.00000517  00000-0 -35532-4 0  9992,2 55773  70.0004 249.4229 0002740 269.4484  90.6361 14.98324063 58112,6950.211,96.107,573.981,570.172,0.0
55773.0,STARLINK-5833,PAYLOAD,2024-03-16 13:06:45,14.98322809,0.000284,70.0003,247.7391,268.1679,91.9155,1.0041e-05,2.7e-07,0.0,0 STARLINK-5833,1 55773U 23028AJ  24076.54636530  .00000027  00000-0  10041-4 0  9992,2 55773  70.0003 247.7391 0002840 268.1679  91.9155 14.98322809 58217,6950.215,96.107,574.054,570.106,0.0
55773.0,STARLINK-5833,PAYLOAD,2024-03-16 14:42:54,14.98322661,0.0002863,70.0001,247.5711,267.6143,92.4688,8.3775e-06,7e-08,0.0,0 STARLINK-5833,1 55773U 23028AJ  24076.61312567  .00000007  00000-0  83775-5 0  9994,2 55773  70.0001 247.5711 0002863 267.6143  92.4688 14.98322661 58228,6950.216,96.107,574.07,570.091,0.0
55773.0,STARLINK-5833,PAYLOAD,2024-03-16 21:07:26,14.98321944,0.000285,69.9999,246.8975,264.7232,95.3602,3.5846e-06,-5e-07,0.0,0 STARLINK-5833,1 55773U 23028AJ  24076.88016737 -.00000050  00000-0  35846-5 0  9998,2 55773  69.9999 246.8975 0002850 264.7232  95.3602 14.98321944 58263,6950.218,96.108,574.064,570.102,0.0
55773.0,STARLINK-5833,PAYLOAD,2024-03-17 13:08:46,14.98327347,0.0003135,69.9991,245.2135,270.959,89.1209,7.3364e-05,7.82e-06,0.0,0 STARLINK-5833,1 55773U 23028AJ  24077.54776318  .00000782  00000-0  73364-4 0  9997,2 55773  69.9991 245.2135 0003135 270.9590  89.1209 14.98327347 58367,6950.201,96.107,574.245,569.887,0.0
55773.0,STARLINK-5833,PAYLOAD,2024-03-17 14:44:54,14.98327509,0.0003135,69.9991,245.0451,271.0117,89.0682,7.3695e-05,7.86e-06,0.0,0 STARLINK-5833,1 55773U 23028AJ  24077.61452319  .00000786  00000-0  73695-4 0  9998,2 55773  69.9991 245.0451 0003135 271.0117  89.0682 14.98327509 58378,6950.201,96.107,574.244,569.887,0.0
55773.0,STARLINK-5833,PAYLOAD,2024-03-17 21:09:26,14.98331908,0.0003026,69.9994,244.3718,269.6715,90.4097,0.00010435,1.152e-05,0.0,0 STARLINK-5833,1 55773U 23028AJ  24077.88155981  .00001152  00000-0  10435-3 0  9992,2 55773  69.9994 244.3718 0003026 269.6715  90.4097 14.98331908 58414,6950.187,96.107,574.155,569.949,0.0
55773.0,STARLINK-5833,PAYLOAD,2024-03-18 11:34:39,14.98327114,0.0002874,69.9999,242.8573,266.0568,94.0262,3.9974e-05,3.84e-06,0.0,0 STARLINK-5833,1 55773U 23028AJ  24078.48240484  .00000384  00000-0  39974-4 0  9998,2 55773  69.9999 242.8573 0002874 266.0568  94.0262 14.98327114 58506,6950.202,96.107,574.064,570.069,0.0
55773.0,STARLINK-5833,PAYLOAD,2024-03-18 21:11:28,14.98327724,0.0002874,69.9999,241.8473,266.8819,93.2011,4.0366e-05,3.89e-06,0.0,0 STARLINK-5833,1 55773U 23028AJ  24078.88296491  .00000389  00000-0  40366-4 0  9993,2 55773  69.9999 241.8473 0002874 266.8819  93.2011 14.98327724 58567,6950.2,96.107,574.062,570.067,0.0
